CCSDS_OMM_VERS = 2.0
CREATION_DATE  = 
ORIGINATOR     = 

OBJECT_NAME    = XRISM
OBJECT_ID      = 2023-137A
CENTER_NAME    = EARTH
REF_FRAME      = TEME
TIME_SYSTEM    = UTC
MEAN_ELEMENT_THEORY = SGP/SGP4

EPOCH          = 2026-04-01T19:37:19.844256
MEAN_MOTION    = 15.11774375
ECCENTRICITY   = .0007914
INCLINATION    = 31.0013
RA_OF_ASC_NODE = 134.0398
ARG_OF_PERICENTER = 271.7893
MEAN_ANOMALY   = 88.1839

EPHEMERIS_TYPE = 0
CLASSIFICATION_TYPE = U
NORAD_CAT_ID   = 57800
ELEMENT_SET_NO = 999
REV_AT_EPOCH   = 14129
BSTAR          = .3574E-3
MEAN_MOTION_DOT = .6352E-4
MEAN_MOTION_DDOT = 0

CCSDS_OMM_VERS = 2.0
CREATION_DATE  = 
ORIGINATOR     = 

OBJECT_NAME    = ACS3
OBJECT_ID      = 2024-077B
CENTER_NAME    = EARTH
REF_FRAME      = TEME
TIME_SYSTEM    = UTC
MEAN_ELEMENT_THEORY = SGP/SGP4

EPOCH          = 2026-04-01T12:43:57.945792
MEAN_MOTION    = 13.90722879
ECCENTRICITY   = .0073127
INCLINATION    = 97.1960
RA_OF_ASC_NODE = 27.5089
ARG_OF_PERICENTER = 24.9280
MEAN_ANOMALY   = 335.5388

EPHEMERIS_TYPE = 0
CLASSIFICATION_TYPE = U
NORAD_CAT_ID   = 59588
ELEMENT_SET_NO = 999
REV_AT_EPOCH   = 9737
BSTAR          = .29532E-1
MEAN_MOTION_DOT = .37824E-3
MEAN_MOTION_DDOT = 0

CCSDS_OMM_VERS = 2.0
CREATION_DATE  = 
ORIGINATOR     = 

OBJECT_NAME    = HTV-X1
OBJECT_ID      = 2025-241A
CENTER_NAME    = EARTH
REF_FRAME      = TEME
TIME_SYSTEM    = UTC
MEAN_ELEMENT_THEORY = SGP/SGP4

EPOCH          = 2026-04-01T12:57:04.456224
MEAN_MOTION    = 15.32489575
ECCENTRICITY   = .0007227
INCLINATION    = 51.6374
RA_OF_ASC_NODE = 322.9356
ARG_OF_PERICENTER = 261.2485
MEAN_ANOMALY   = 98.7678

EPHEMERIS_TYPE = 0
CLASSIFICATION_TYPE = U
NORAD_CAT_ID   = 66174
ELEMENT_SET_NO = 999
REV_AT_EPOCH   = 2444
BSTAR          = .51596E-4
MEAN_MOTION_DOT = .1271E-4
MEAN_MOTION_DDOT = 0

CCSDS_OMM_VERS = 2.0
CREATION_DATE  = 
ORIGINATOR     = 

OBJECT_NAME    = SZ-21 MODULE
OBJECT_ID      = 2025-246C
CENTER_NAME    = EARTH
REF_FRAME      = TEME
TIME_SYSTEM    = UTC
MEAN_ELEMENT_THEORY = SGP/SGP4

EPOCH          = 2026-04-01T06:45:24.481440
MEAN_MOTION    = 15.70350675
ECCENTRICITY   = .000248
INCLINATION    = 41.4741
RA_OF_ASC_NODE = 64.1049
ARG_OF_PERICENTER = 219.0022
MEAN_ANOMALY   = 141.0642

EPHEMERIS_TYPE = 0
CLASSIFICATION_TYPE = U
NORAD_CAT_ID   = 66515
ELEMENT_SET_NO = 999
REV_AT_EPOCH   = 2162
BSTAR          = .33251E-3
MEAN_MOTION_DOT = .41682E-3
MEAN_MOTION_DDOT = 0

